{"type": "FeatureCollection", "features": [ {"type": "Feature", "properties": {"norad_id": 66502, "name": "STARLINK-35922", "group": "last-30-days", "lat": -36.390583975737485, "lon": 110.9155611691248, "alt_km": 390.4563685450985, "timestamp": "2025-12-06T05:40:08.011334+00:00", "meta": {"OBJECT_NAME": "STARLINK-35922", "OBJECT_ID": "2025-263T", "EPOCH": "2025-12-05T06:00:02.000160", "MEAN_MOTION": 15.63873664, "ECCENTRICITY": 0.00013804, "INCLINATION": 42.9992, "RA_OF_ASC_NODE": 169.0546, "ARG_OF_PERICENTER": 267.1799, "MEAN_ANOMALY": 241.244, "EPHEMERIS_TYPE": 0, "CLASSIFICATION_TYPE": "U", "NORAD_CAT_ID": 66502, "ELEMENT_SET_NO": 999, "REV_AT_EPOCH": 443, "BSTAR": -0.024228697, "MEAN_MOTION_DOT": -0.02050349, "MEAN_MOTION_DDOT": 0}, "tle": {"line1": "1 66502U 25263T   25339.25002315 -.02050349  00000+0 -24229-1 0  9991", "line2": "2 66502  42.9992 169.0546 0001380 267.1799 241.2440 15.63873664  4437"}}, "geometry": {"type": "Point", "coordinates": [110.9155611691248, -36.390583975737485]}}, {"type": "Feature", "properties": {"norad_id": 66503, "name": "STARLINK-35917", "group": "last-30-days", "lat": -34.72548788979239, "lon": 115.12341911610757, "alt_km": 390.3390348916, "timestamp": "2025-12-06T05:40:08.011346+00:00", "meta": {"OBJECT_NAME": "STARLINK-35917", "OBJECT_ID": "2025-263U", "EPOCH": "2025-12-05T06:00:02.000160", "MEAN_MOTION": 15.63880889, "ECCENTRICITY": 0.00014504, "INCLINATION": 42.9994, "RA_OF_ASC_NODE": 169.0453, "ARG_OF_PERICENTER": 270.3996, "MEAN_ANOMALY": 241.8552, "EPHEMERIS_TYPE": 0, "CLASSIFICATION_TYPE": "U", "NORAD_CAT_ID": 66503, "ELEMENT_SET_NO": 999, "REV_AT_EPOCH": 443, "BSTAR": -0.024348596, "MEAN_MOTION_DOT": -0.02059782, "MEAN_MOTION_DDOT": 0}, "tle": {"line1": "1 66503U 25263U   25339.25002315 -.02059782  00000+0 -24349-1 0  9995", "line2": "2 66503  42.9994 169.0453 0001450 270.3996 241.8552 15.63880889  4437"}}, "geometry": {"type": "Point", "coordinates": [115.12341911610757, -34.72548788979239]}}, {"type": "Feature", "properties": {"norad_id": 66504, "name": "STARLINK-35916", "group": "last-30-days", "lat": -40.8553657001985, "lon": 95.9651896951301, "alt_km": 437.4132151995136, "timestamp": "2025-12-06T05:40:08.011360+00:00", "meta": {"OBJECT_NAME": "STARLINK-35916", "OBJECT_ID": "2025-263V", "EPOCH": "2025-12-05T06:00:02.000160", "MEAN_MOTION": 15.47809689, "ECCENTRICITY": 0.00013926, "INCLINATION": 42.9997, "RA_OF_ASC_NODE": 169.8353, "ARG_OF_PERICENTER": 261.0612, "MEAN_ANOMALY": 291.3465, "EPHEMERIS_TYPE": 0, "CLASSIFICATION_TYPE": "U", "NORAD_CAT_ID": 66504, "ELEMENT_SET_NO": 999, "REV_AT_EPOCH": 443, "BSTAR": -0.043472499, "MEAN_MOTION_DOT": -0.02057396, "MEAN_MOTION_DDOT": 0}, "tle": {"line1": "1 66504U 25263V   25339.25002315 -.02057396  00000+0 -43472-1 0  9993", "line2": "2 66504  42.9997 169.8353 0001392 261.0612 291.3465 15.47809689  4439"}}, "geometry": {"type": "Point", "coordinates": [95.9651896951301, -40.8553657001985]}}, {"type": "Feature", "properties": {"norad_id": 66505, "name": "STARLINK-34766", "group": "last-30-days", "lat": -37.912246697573956, "lon": 106.4976760108998, "alt_km": 390.51102016492587, "timestamp": "2025-12-06T05:40:08.011371+00:00", "meta": {"OBJECT_NAME": "STARLINK-34766", "OBJECT_ID": "2025-263W", "EPOCH": "2025-12-05T06:00:02.000160", "MEAN_MOTION": 15.63880371, "ECCENTRICITY": 0.00013777, "INCLINATION": 42.999, "RA_OF_ASC_NODE": 169.0643, "ARG_OF_PERICENTER": 267.4451, "MEAN_ANOMALY": 237.141, "EPHEMERIS_TYPE": 0, "CLASSIFICATION_TYPE": "U", "NORAD_CAT_ID": 66505, "ELEMENT_SET_NO": 999, "REV_AT_EPOCH": 443, "BSTAR": -0.024330319, "MEAN_MOTION_DOT": -0.02058337, "MEAN_MOTION_DDOT": 0}, "tle": {"line1": "1 66505U 25263W   25339.25002315 -.02058337  00000+0 -24330-1 0  9992", "line2": "2 66505  42.9990 169.0643 0001377 267.4451 237.1410 15.63880371  4434"}}, "geometry": {"type": "Point", "coordinates": [106.4976760108998, -37.912246697573956]}}, {"type": "Feature", "properties": {"norad_id": 66506, "name": "STARLINK-34765", "group": "last-30-days", "lat": -37.17530900198727, "lon": 108.71996941357595, "alt_km": 390.4005512722033, "timestamp": "2025-12-06T05:40:08.011381+00:00", "meta": {"OBJECT_NAME": "STARLINK-34765", "OBJECT_ID": "2025-263X", "EPOCH": "2025-12-05T06:00:02.000160", "MEAN_MOTION": 15.6388285, "ECCENTRICITY": 0.00014381, "INCLINATION": 42.9991, "RA_OF_ASC_NODE": 169.0601, "ARG_OF_PERICENTER": 270.515, "MEAN_ANOMALY": 235.9856, "EPHEMERIS_TYPE": 0, "CLASSIFICATION_TYPE": "U", "NORAD_CAT_ID": 66506, "ELEMENT_SET_NO": 999, "REV_AT_EPOCH": 443, "BSTAR": -0.024349547, "MEAN_MOTION_DOT": -0.02059984, "MEAN_MOTION_DDOT": 0}, "tle": {"line1": "1 66506U 25263X   25339.25002315 -.02059984  00000+0 -24350-1 0  9994", "line2": "2 66506  42.9991 169.0601 0001438 270.5150 235.9856 15.63882850  4433"}}, "geometry": {"type": "Point", "coordinates": [108.71996941357595, -37.17530900198727]}}, {"type": "Feature", "properties": {"norad_id": 66507, "name": "STARLINK-34767", "group": "last-30-days", "lat": -35.57817757878219, "lon": 113.03626231549481, "alt_km": 390.34331919562646, "timestamp": "2025-12-06T05:40:08.011393+00:00", "meta": {"OBJECT_NAME": "STARLINK-34767", "OBJECT_ID": "2025-263Y", "EPOCH": "2025-12-05T06:00:02.000160", "MEAN_MOTION": 15.6387498, "ECCENTRICITY": 0.00014632, "INCLINATION": 42.9993, "RA_OF_ASC_NODE": 169.0493, "ARG_OF_PERICENTER": 270.1362, "MEAN_ANOMALY": 240.2066, "EPHEMERIS_TYPE": 0, "CLASSIFICATION_TYPE": "U", "NORAD_CAT_ID": 66507, "ELEMENT_SET_NO": 999, "REV_AT_EPOCH": 443, "BSTAR": -0.024286857, "MEAN_MOTION_DOT": -0.02054808, "MEAN_MOTION_DDOT": 0}, "tle": {"line1": "1 66507U 25263Y   25339.25002315 -.02054808  00000+0 -24287-1 0  9994", "line2": "2 66507  42.9993 169.0493 0001463 270.1362 240.2066 15.63874980  4431"}}, "geometry": {"type": "Point", "coordinates": [113.03626231549481, -35.57817757878219]}}, {"type": "Feature", "properties": {"norad_id": 66508, "name": "STARLINK-35608", "group": "last-30-days", "lat": -32.911599384483154, "lon": 119.1777075133413, "alt_km": 390.2912004256568, "timestamp": "2025-12-06T05:40:08.011422+00:00", "meta": {"OBJECT_NAME": "STARLINK-35608", "OBJECT_ID": "2025-263Z", "EPOCH": "2025-12-05T06:00:02.000160", "MEAN_MOTION": 15.63879236, "ECCENTRICITY": 0.00014643, "INCLINATION": 42.9996, "RA_OF_ASC_NODE": 169.0359, "ARG_OF_PERICENTER": 269.6969, "MEAN_ANOMALY": 246.3933, "EPHEMERIS_TYPE": 0, "CLASSIFICATION_TYPE": "U", "NORAD_CAT_ID": 66508, "ELEMENT_SET_NO": 999, "REV_AT_EPOCH": 443, "BSTAR": -0.024332033, "MEAN_MOTION_DOT": -0.02058451, "MEAN_MOTION_DDOT": 0}, "tle": {"line1": "1 66508U 25263Z   25339.25002315 -.02058451  00000+0 -24332-1 0  9994", "line2": "2 66508  42.9996 169.0359 0001464 269.6969 246.3933 15.63879236  4432"}}, "geometry": {"type": "Point", "coordinates": [119.1777075133413, -32.911599384483154]}}, {"type": "Feature", "properties": {"norad_id": 66509, "name": "STARLINK-35598", "group": "last-30-days", "lat": -28.90893041558206, "lon": 126.80430030028946, "alt_km": 390.3164042398921, "timestamp": "2025-12-06T05:40:08.011433+00:00", "meta": {"OBJECT_NAME": "STARLINK-35598", "OBJECT_ID": "2025-263AA", "EPOCH": "2025-12-05T06:00:02.000160", "MEAN_MOTION": 15.63877562, "ECCENTRICITY": 0.0001385, "INCLINATION": 42.9994, "RA_OF_ASC_NODE": 169.0144, "ARG_OF_PERICENTER": 264.3477, "MEAN_ANOMALY": 259.4065, "EPHEMERIS_TYPE": 0, "CLASSIFICATION_TYPE": "U", "NORAD_CAT_ID": 66509, "ELEMENT_SET_NO": 999, "REV_AT_EPOCH": 443, "BSTAR": -0.0242368, "MEAN_MOTION_DOT": -0.0205123, "MEAN_MOTION_DDOT": 0}, "tle": {"line1": "1 66509U 25263AA  25339.25002315 -.02051230  00000+0 -24237-1 0  9997", "line2": "2 66509  42.9994 169.0144 0001385 264.3477 259.4065 15.63877562  4432"}}, "geometry": {"type": "Point", "coordinates": [126.80430030028946, -28.90893041558206]}}, {"type": "Feature", "properties": {"norad_id": 66510, "name": "STARLINK-35600", "group": "last-30-days", "lat": -31.946535169133263, "lon": 121.15794356704639, "alt_km": 390.2908249457696, "timestamp": "2025-12-06T05:40:08.011443+00:00", "meta": {"OBJECT_NAME": "STARLINK-35600", "OBJECT_ID": "2025-263AB", "EPOCH": "2025-12-05T06:00:02.000160", "MEAN_MOTION": 15.63872823, "ECCENTRICITY": 0.00013931, "INCLINATION": 42.9992, "RA_OF_ASC_NODE": 169.0291, "ARG_OF_PERICENTER": 268.7567, "MEAN_ANOMALY": 249.2525, "EPHEMERIS_TYPE": 0, "CLASSIFICATION_TYPE": "U", "NORAD_CAT_ID": 66510, "ELEMENT_SET_NO": 999, "REV_AT_EPOCH": 443, "BSTAR": -0.024204916, "MEAN_MOTION_DOT": -0.0204854, "MEAN_MOTION_DDOT": 0}, "tle": {"line1": "1 66510U 25263AB  25339.25002315 -.02048540  00000+0 -24205-1 0  9994", "line2": "2 66510  42.9992 169.0291 0001393 268.7567 249.2525 15.63872823  4435"}}, "geometry": {"type": "Point", "coordinates": [121.15794356704639, -31.946535169133263]}}, {"type": "Feature", "properties": {"norad_id": 66511, "name": "STARLINK-35444", "group": "last-30-days", "lat": -29.96174358770747, "lon": 124.93788310098614, "alt_km": 390.23728877298436, "timestamp": "2025-12-06T05:40:08.011453+00:00", "meta": {"OBJECT_NAME": "STARLINK-35444", "OBJECT_ID": "2025-263AC", "EPOCH": "2025-12-05T06:00:02.000160", "MEAN_MOTION": 15.63880221, "ECCENTRICITY": 0.00014379, "INCLINATION": 42.9994, "RA_OF_ASC_NODE": 169.0202, "ARG_OF_PERICENTER": 269.2486, "MEAN_ANOMALY": 252.5932, "EPHEMERIS_TYPE": 0, "CLASSIFICATION_TYPE": "U", "NORAD_CAT_ID": 66511, "ELEMENT_SET_NO": 999, "REV_AT_EPOCH": 443, "BSTAR": -0.024358971, "MEAN_MOTION_DOT": -0.0206049, "MEAN_MOTION_DDOT": 0}, "tle": {"line1": "1 66511U 25263AC  25339.25002315 -.02060490  00000+0 -24359-1 0  9993", "line2": "2 66511  42.9994 169.0202 0001437 269.2486 252.5932 15.63880221  4435"}}, "geometry": {"type": "Point", "coordinates": [124.93788310098614, -29.96174358770747]}}]}